25593,COSMOS 2364 [GLONASS],1998,675.73,-1.0,-,64.05,Inactive,0,MEO,Kazakhstan,Russia/USSR,Unknown,Unknown,Unknown,1 25593U 98077A   25103.12820581 -.00000006  00000+0  00000+0 0  9998,2 25593  64.0520  75.2787 0030088  50.6420  65.4630  2.13102897204491,2.13102897,0.0030088,MEO
26565,COSMOS 2376 [GLONASS],2000,675.73,-1.0,-,65.44,Inactive,0,MEO,Kazakhstan,Russia/USSR,Unknown,Unknown,Unknown,1 26565U 00063B   25103.61225164 -.00000047  00000+0  00000+0 0  9991,2 26565  65.4434 328.4713 0005086  28.9921 155.3290  2.13102656190663,2.13102656,0.0005086,MEO
23513,COSMOS 2309 [GLONASS],1995,675.89,-1.0,-,64.3,Inactive,0,MEO,Kazakhstan,Russia/USSR,Unknown,Unknown,Unknown,1 23513U 95009C   25098.19931707 -.00000029  00000+0  00000+0 0  9998,2 23513  64.2976 316.7525 0034943 214.8069 344.2450  2.13052118234039,2.13052118,0.0034943,MEO
23620,COSMOS 2316 [GLONASS],1995,675.73,-1.0,-,65.47,Inactive,0,MEO,Kazakhstan,Russia/USSR,Unknown,Unknown,Unknown,1 23620U 95037A   25102.56056660 -.00000006  00000+0  00000+0 0  9996,2 23620  65.4707 216.7480 0013070 153.4409 278.8132  2.13101535231322,2.13101535,0.001307,MEO
23621,COSMOS 2317 [GLONASS],1995,675.73,-1.0,-,65.48,Inactive,0,MEO,Kazakhstan,Russia/USSR,Unknown,Unknown,Unknown,1 23621U 95037B   25102.26480595 -.00000010  00000+0  00000+0 0  9997,2 23621  65.4807 216.8983 0009629 166.8938 263.4063  2.13101707231079,2.13101707,0.0009629,MEO
23622,COSMOS 2318 [GLONASS],1995,675.73,-1.0,-,65.47,Inactive,0,MEO,Kazakhstan,Russia/USSR,Unknown,Unknown,Unknown,1 23622U 95037C   25103.17003302  .00000002  00000+0  00000+0 0  9996,2 23622  65.4725 216.7549 0016080  73.4144 285.8659  2.13101862231067,2.13101862,0.001608,MEO
23734,COSMOS 2325 [GLONASS],1995,675.73,-1.0,-,65.47,Inactive,0,MEO,Kazakhstan,Russia/USSR,Unknown,Unknown,Unknown,1 23734U 95068A   25102.39953870 -.00000008  00000+0  00000+0 0  9998,2 23734  65.4749 216.7241 0020556 222.8567 192.7263  2.13102705228215,2.13102705,0.0020556,MEO
23735,COSMOS 2324 [GLONASS],1995,675.73,-1.0,-,65.47,Inactive,0,MEO,Kazakhstan,Russia/USSR,Unknown,Unknown,Unknown,1 23735U 95068B   25102.44570747 -.00000008  00000+0  00000+0 0  9993,2 23735  65.4722 216.6668 0003465 117.3216 242.7047  2.13102720228288,2.1310272,0.0003465,MEO
