[
    {
        "OBJECT_NAME": "COSMOS 2309 [GLONASS]",
        "OBJECT_ID": "1995-009C",
        "EPOCH": "2025-04-08T04:47:00.994848",
        "MEAN_MOTION": 2.13052118,
        "ECCENTRICITY": 0.0034943,
        "INCLINATION": 64.2976,
        "RA_OF_ASC_NODE": 316.7525,
        "ARG_OF_PERICENTER": 214.8069,
        "MEAN_ANOMALY": 344.245,
        "EPHEMERIS_TYPE": 0,
        "CLASSIFICATION_TYPE": "U",
        "NORAD_CAT_ID": 23513,
        "ELEMENT_SET_NO": 999,
        "REV_AT_EPOCH": 23403,
        "BSTAR": 0,
        "MEAN_MOTION_DOT": -2.9e-07,
        "MEAN_MOTION_DDOT": 0
    },
    {
        "OBJECT_NAME": "COSMOS 2316 [GLONASS]",
        "OBJECT_ID": "1995-037A",
        "EPOCH": "2025-04-12T13:27:12.954240",
        "MEAN_MOTION": 2.13101535,
        "ECCENTRICITY": 0.001307,
        "INCLINATION": 65.4707,
        "RA_OF_ASC_NODE": 216.748,
        "ARG_OF_PERICENTER": 153.4409,
        "MEAN_ANOMALY": 278.8132,
        "EPHEMERIS_TYPE": 0,
        "CLASSIFICATION_TYPE": "U",
        "NORAD_CAT_ID": 23620,
        "ELEMENT_SET_NO": 999,
        "REV_AT_EPOCH": 23132,
        "BSTAR": 0,
        "MEAN_MOTION_DOT": -6e-08,
        "MEAN_MOTION_DDOT": 0
    },
    {
        "OBJECT_NAME": "COSMOS 2317 [GLONASS]",
        "OBJECT_ID": "1995-037B",
        "EPOCH": "2025-04-12T06:21:19.234080",
        "MEAN_MOTION": 2.13101707,
        "ECCENTRICITY": 0.0009629,
        "INCLINATION": 65.4807,
        "RA_OF_ASC_NODE": 216.8983,
        "ARG_OF_PERICENTER": 166.8938,
        "MEAN_ANOMALY": 263.4063,
        "EPHEMERIS_TYPE": 0,
        "CLASSIFICATION_TYPE": "U",
        "NORAD_CAT_ID": 23621,
        "ELEMENT_SET_NO": 999,
        "REV_AT_EPOCH": 23107,
        "BSTAR": 0,
        "MEAN_MOTION_DOT": -1e-07,
        "MEAN_MOTION_DDOT": 0
    },
    {
        "OBJECT_NAME": "COSMOS 2318 [GLONASS]",
        "OBJECT_ID": "1995-037C",
        "EPOCH": "2025-04-13T04:04:50.852928",
        "MEAN_MOTION": 2.13101862,
        "ECCENTRICITY": 0.001608,
        "INCLINATION": 65.4725,
        "RA_OF_ASC_NODE": 216.7549,
        "ARG_OF_PERICENTER": 73.4144,
        "MEAN_ANOMALY": 285.8659,
        "EPHEMERIS_TYPE": 0,
        "CLASSIFICATION_TYPE": "U",
        "NORAD_CAT_ID": 23622,
        "ELEMENT_SET_NO": 999,
        "REV_AT_EPOCH": 23106,
        "BSTAR": 0,
        "MEAN_MOTION_DOT": 2e-08,
        "MEAN_MOTION_DDOT": 0
    },
    {
        "OBJECT_NAME": "COSMOS 2325 [GLONASS]",
        "OBJECT_ID": "1995-068A",
        "EPOCH": "2025-04-12T09:35:20.143680",
        "MEAN_MOTION": 2.13102705,
        "ECCENTRICITY": 0.0020556,
        "INCLINATION": 65.4749,
        "RA_OF_ASC_NODE": 216.7241,
        "ARG_OF_PERICENTER": 222.8567,
        "MEAN_ANOMALY": 192.7263,
        "EPHEMERIS_TYPE": 0,
        "CLASSIFICATION_TYPE": "U",
        "NORAD_CAT_ID": 23734,
        "ELEMENT_SET_NO": 999,
        "REV_AT_EPOCH": 22821,
        "BSTAR": 0,
        "MEAN_MOTION_DOT": -8e-08,
        "MEAN_MOTION_DDOT": 0
    },
    {
        "OBJECT_NAME": "COSMOS 2324 [GLONASS]",
        "OBJECT_ID": "1995-068B",
        "EPOCH": "2025-04-12T10:41:49.125408",
        "MEAN_MOTION": 2.1310272,
        "ECCENTRICITY": 0.0003465,
        "INCLINATION": 65.4722,
        "RA_OF_ASC_NODE": 216.6668,
        "ARG_OF_PERICENTER": 117.3216,
        "MEAN_ANOMALY": 242.7047,
        "EPHEMERIS_TYPE": 0,
        "CLASSIFICATION_TYPE": "U",
        "NORAD_CAT_ID": 23735,
        "ELEMENT_SET_NO": 999,
        "REV_AT_EPOCH": 22828,
        "BSTAR": 0,
        "MEAN_MOTION_DOT": -8e-08,
        "MEAN_MOTION_DDOT": 0
    },
    {
        "OBJECT_NAME": "COSMOS 2364 [GLONASS]",
        "OBJECT_ID": "1998-077A",
        "EPOCH": "2025-04-13T03:04:36.981984",
        "MEAN_MOTION": 2.13102897,
        "ECCENTRICITY": 0.0030088,
        "INCLINATION": 64.052,
        "RA_OF_ASC_NODE": 75.2787,
        "ARG_OF_PERICENTER": 50.642,
        "MEAN_ANOMALY": 65.463,
        "EPHEMERIS_TYPE": 0,
        "CLASSIFICATION_TYPE": "U",
        "NORAD_CAT_ID": 25593,
        "ELEMENT_SET_NO": 999,
        "REV_AT_EPOCH": 20449,
        "BSTAR": 0,
        "MEAN_MOTION_DOT": -6e-08,
        "MEAN_MOTION_DDOT": 0
    },
    {
        "OBJECT_NAME": "COSMOS 2376 [GLONASS]",
        "OBJECT_ID": "2000-063B",
        "EPOCH": "2025-04-13T14:41:38.541696",
        "MEAN_MOTION": 2.13102656,
        "ECCENTRICITY": 0.0005086,
        "INCLINATION": 65.4434,
        "RA_OF_ASC_NODE": 328.4713,
        "ARG_OF_PERICENTER": 28.9921,
        "MEAN_ANOMALY": 155.329,
        "EPHEMERIS_TYPE": 0,
        "CLASSIFICATION_TYPE": "U",
        "NORAD_CAT_ID": 26565,
        "ELEMENT_SET_NO": 999,
        "REV_AT_EPOCH": 19066,
        "BSTAR": 0,
        "MEAN_MOTION_DOT": -4.7e-07,
        "MEAN_MOTION_DDOT": 0
    }
]